JILIN-1 03              
1 41914U 17002B   26189.57278896  .00009920  00000+0  23353-3 0  9995
2 41914  97.1954 196.3623 0008038  96.9054 263.3108 15.42114724525150
CARTOSAT-2D             
1 41948U 17008A   26189.56421280  .00003097  00000+0  15013-3 0  9997
2 41948  97.4096 248.4698 0005343 158.3051 201.8411 15.19253410520827
CARTOSAT-2E             
1 42767U 17036C   26189.51598937  .00002361  00000+0  11536-3 0  9996
2 42767  97.4262 248.9663 0002602 217.9485 142.1567 15.19220292501388
IRIDIUM 113             
1 42803U 17039A   26189.31045105  .00000208  00000+0  67139-4 0  9991
2 42803  86.3989 313.3494 0002146  91.6014 268.5428 14.34217693474216
NORSAT 2                
1 42828U 17042D   26189.45877852  .00005761  00000+0  25257-3 0  9992
2 42828  97.4054   2.5689 0008746 344.2101  15.8861 15.22342760490975
TECHNOSAT               
1 42829U 17042E   26189.39184282  .00002491  00000+0  17875-3 0  9998
2 42829  97.4300 346.2462 0018018  25.3253 334.8853 15.05080876489897
FLYING LAPTOP           
1 42831U 17042G   26189.58165177  .00002552  00000+0  20217-3 0  9996
2 42831  97.4784 344.3054 0019922  53.3776 306.9277 15.01284426489666
WNISAT 1R               
1 42835U 17042L   26189.41300276  .00000980  00000+0  79390-4 0  9993
2 42835  97.4832 344.7777 0011627  85.5122 274.7431 15.01848364489690
LEMUR-2-GREENBERG       
1 42837U 17042N   26189.45031503  .00010957  00000+0  35673-3 0  9993
2 42837  97.3833   9.9878 0007174 288.3377  71.7084 15.32004569491643
LEMUR-2-FURIAUS         
1 42840U 17042R   26189.45874100  .00011223  00000+0  37717-3 0  9993
2 42840  97.3781   7.9032 0006516 356.1929   3.9261 15.30975722491465
CORVUS BC2              
1 42846U 17042X   26189.38508167  .00002179  00000+0  15156-3 0  9991
2 42846  97.4092 349.9145 0013935  44.8097 315.4254 15.06433206490259
CORVUS BC1              
1 42847U 17042Y   26189.24451414  .00001877  00000+0  13058-3 0  9992
2 42847  97.4125 350.6071 0012340  24.3620 335.8189 15.06597967490267
VRSS-2                  
1 42954U 17060A   26189.60161907  .00001141  00000+0  15257-3 0  9993
2 42954  97.6503 226.3633 0018007  34.3749 325.8626 14.81233134471629
MOHAMMED VI-A           
1 43005U 17070A   26189.54967131  .00000380  00000+0  61056-4 0  9991
2 43005  97.9546 261.5863 0001139  88.7751 271.3589 14.77097148467139
FENGYUN 3D              
1 43010U 17072A   26189.57166368 -.00000118  00000+0 -33727-4 0  9990
2 43010  99.0140 164.3815 0001895  27.3517 332.7758 14.19742771448025
NOAA 20 (JPSS-1)        
1 43013U 17073A   26189.49965203  .00000040  00000+0  39707-4 0  9996
2 43013  98.7773 128.7732 0001127 129.9126 230.2149 14.19515613447490
MAKERSAT 0              
1 43016U 17073D   26189.40175185  .00012320  00000+0  32793-3 0  9993
2 43016  97.4598  72.0927 0105079 196.4808 163.3010 15.32828073469713
RADFXSAT (FOX-1B)       
1 43017U 17073E   26189.43942832  .00004488  00000+0  19744-3 0  9995
2 43017  97.4685  56.2209 0148105 255.0605 103.4188 15.13003288468602
JILIN-1 04              
1 43022U 17074A   26189.55586360  .00010149  00000+0  23212-3 0  9991
2 43022  97.4865 299.7477 0005167 117.5620 242.6153 15.43010912477566
JILIN-1 05              
1 43023U 17074B   26189.58169634  .00006287  00000+0  19222-3 0  9990
2 43023  97.4870 296.0312 0006116 143.1181 217.0483 15.34216171477289
JILIN-1 06              
1 43024U 17074C   26189.55639052  .00003964  00000+0  12311-3 0  9995
2 43024  97.4797 292.9869 0007599 154.2106 205.9516 15.33946733477114
IRIDIUM 116             
1 43072U 17083C   26189.28508010  .00000211  00000+0  68201-4 0  9999
2 43072  86.3981 313.1811 0002364 100.5613 259.5850 14.34219419447199
IRIDIUM 130             
1 43073U 17083D   26188.90452617  .00000201  00000+0  64867-4 0  9992
2 43073  86.3984 313.6189 0002005 107.0486 253.0930 14.34215914447080
LKW-2                   
1 43080U 17084A   26189.59533256  .00005273  00000+0  20384-3 0  9995
2 43080  97.1182 228.3930 0003192 131.7639 228.3874 15.26631411474950
SUPERVIEW-1 03          
1 43099U 18002A   26189.61344971  .00014642  00000+0  35413-3 0  9992
2 43099  97.3126 274.4278 0047256 104.1270 256.5235 15.40047929471661
CARTOSAT-2F             
1 43111U 18004A   26189.54861271  .00002153  00000+0  10546-3 0  9992
2 43111  97.4777 248.9736 0002226 147.5300 212.6072 15.19237808470571
LKW-3                   
1 43146U 18006A   26189.55979492  .00004411  00000+0  12975-3 0  9995
2 43146  97.6636 350.9771 0002455 204.5980 155.5146 15.35655889471995
ASNARO-2                
1 43152U 18007A   26189.54748956  .00005897  00000+0  25842-3 0  9997
2 43152  97.3976 196.1405 0001977  93.4680 266.6782 15.22378908470663
