OBJECT_NAME,OBJECT_ID,EPOCH,MEAN_MOTION,ECCENTRICITY,INCLINATION,RA_OF_ASC_NODE,ARG_OF_PERICENTER,MEAN_ANOMALY,EPHEMERIS_TYPE,CLASSIFICATION_TYPE,NORAD_CAT_ID,ELEMENT_SET_NO,REV_AT_EPOCH,BSTAR,MEAN_MOTION_DOT,MEAN_MOTION_DDOT
JILIN-1 03,2017-002B,2026-07-08T13:44:48.966144,15.42114724,.00080386,97.1954,196.3623,96.9054,263.3108,0,U,41914,999,52515,.23352933E-3,.992E-4,0
CARTOSAT-2D,2017-008A,2026-07-08T13:32:27.985920,15.19253410,.00053436,97.4096,248.4698,158.3051,201.8411,0,U,41948,999,52082,.15012865E-3,.3097E-4,0
CARTOSAT-2E,2017-036C,2026-07-08T12:23:01.481568,15.19220292,.00026027,97.4262,248.9663,217.9485,142.1567,0,U,42767,999,50138,.11536062E-3,.2361E-4,0
IRIDIUM 113,2017-039A,2026-07-08T07:27:02.970720,14.34217693,.00021465,86.3989,313.3494,91.6014,268.5428,0,U,42803,999,47421,.67138828E-4,.208E-5,0
NORSAT 2,2017-042D,2026-07-08T11:00:38.464128,15.22342760,.00087462,97.4054,2.5689,344.2101,15.8861,0,U,42828,999,49097,.25256593E-3,.5761E-4,0
TECHNOSAT,2017-042E,2026-07-08T09:24:15.219648,15.05080876,.00180184,97.4300,346.2462,25.3253,334.8853,0,U,42829,999,48989,.17874711E-3,.2491E-4,0
FLYING LAPTOP,2017-042G,2026-07-08T13:57:34.712928,15.01284426,.00199224,97.4784,344.3054,53.3776,306.9277,0,U,42831,999,48966,.20217195E-3,.2552E-4,0
WNISAT 1R,2017-042L,2026-07-08T09:54:43.438464,15.01848364,.0011627,97.4832,344.7777,85.5122,274.7431,0,U,42835,999,48969,.79389852E-4,.98E-5,0
LEMUR-2-GREENBERG,2017-042N,2026-07-08T10:48:27.218592,15.32004569,.00071741,97.3833,9.9878,288.3377,71.7084,0,U,42837,999,49164,.35672923E-3,.10957E-3,0
LEMUR-2-FURIAUS,2017-042R,2026-07-08T11:00:35.222400,15.30975722,.0006516,97.3781,7.9032,356.1929,3.9261,0,U,42840,999,49146,.37716981E-3,.11223E-3,0
CORVUS BC2,2017-042X,2026-07-08T09:14:31.056288,15.06433206,.00139359,97.4092,349.9145,44.8097,315.4254,0,U,42846,999,49025,.15156254E-3,.2179E-4,0
CORVUS BC1,2017-042Y,2026-07-08T05:52:06.021696,15.06597967,.00123403,97.4125,350.6071,24.3620,335.8189,0,U,42847,999,49026,.13057561E-3,.1877E-4,0
VRSS-2,2017-060A,2026-07-08T14:26:19.887648,14.81233134,.00180078,97.6503,226.3633,34.3749,325.8626,0,U,42954,999,47162,.15256788E-3,.1141E-4,0
MOHAMMED VI-A,2017-070A,2026-07-08T13:11:31.601184,14.77097148,.00011393,97.9546,261.5863,88.7751,271.3589,0,U,43005,999,46713,.61056121E-4,.38E-5,0
FENGYUN 3D,2017-072A,2026-07-08T13:43:11.741952,14.19742771,.00018959,99.0140,164.3815,27.3517,332.7758,0,U,43010,999,44802,-.33726946E-4,-.118E-5,0
NOAA 20 (JPSS-1),2017-073A,2026-07-08T11:59:29.935392,14.19515613,.00011271,98.7773,128.7732,129.9126,230.2149,0,U,43013,999,44749,.39706533E-4,.4E-6,0
MAKERSAT 0,2017-073D,2026-07-08T09:38:31.359840,15.32828073,.01050799,97.4598,72.0927,196.4808,163.3010,0,U,43016,999,46971,.32792749E-3,.1232E-3,0
RADFXSAT (FOX-1B),2017-073E,2026-07-08T10:32:46.606848,15.13003288,.0148105,97.4685,56.2209,255.0605,103.4188,0,U,43017,999,46860,.1974387E-3,.4488E-4,0
JILIN-1 04,2017-074A,2026-07-08T13:20:26.615040,15.43010912,.00051678,97.4865,299.7477,117.5620,242.6153,0,U,43022,999,47756,.232123E-3,.10149E-3,0
JILIN-1 05,2017-074B,2026-07-08T13:57:38.563776,15.34216171,.00061161,97.4870,296.0312,143.1181,217.0483,0,U,43023,999,47728,.19221639E-3,.6287E-4,0
JILIN-1 06,2017-074C,2026-07-08T13:21:12.140928,15.33946733,.00075995,97.4797,292.9869,154.2106,205.9516,0,U,43024,999,47711,.12310911E-3,.3964E-4,0
IRIDIUM 116,2017-083C,2026-07-08T06:50:30.920640,14.34219419,.00023642,86.3981,313.1811,100.5613,259.5850,0,U,43072,999,44719,.6820091E-4,.211E-5,0
IRIDIUM 130,2017-083D,2026-07-07T21:42:31.061088,14.34215914,.00020058,86.3984,313.6189,107.0486,253.0930,0,U,43073,999,44708,.64866873E-4,.201E-5,0
LKW-2,2017-084A,2026-07-08T14:17:16.733184,15.26631411,.00031923,97.1182,228.3930,131.7639,228.3874,0,U,43080,999,47495,.20384313E-3,.5273E-4,0
SUPERVIEW-1 03,2018-002A,2026-07-08T14:43:22.054944,15.40047929,.00472563,97.3126,274.4278,104.1270,256.5235,0,U,43099,999,47166,.3541324E-3,.14642E-3,0
CARTOSAT-2F,2018-004A,2026-07-08T13:10:00.138144,15.19237808,.00022265,97.4777,248.9736,147.5300,212.6072,0,U,43111,999,47057,.10546477E-3,.2153E-4,0
LKW-3,2018-006A,2026-07-08T13:26:06.281088,15.35655889,.0002455,97.6636,350.9771,204.5980,155.5146,0,U,43146,999,47199,.12975195E-3,.4411E-4,0
ASNARO-2,2018-007A,2026-07-08T13:08:23.097984,15.22378908,.00019774,97.3976,196.1405,93.4680,266.6782,0,U,43152,999,47066,.25842013E-3,.5897E-4,0
